{
  "norad_id": 57229,
  "name": "STARLINK-6233",
  "history": [
    {
      "epoch": "2026-04-16T13:07:59.797632Z",
      "apogee_km": 486.48691660526674,
      "perigee_km": 484.6350908838567,
      "latitude_deg": 1.6441453215331354e-05,
      "longitude_deg": 135.3662971407717,
      "height_km": 485.35658354404256,
      "semi_major_axis_km": 6863.698003744562,
      "eccentricity": 0.0001349,
      "inclination_deg": 43.0016,
      "raan_deg": 177.0588,
      "arg_perigee_deg": 268.845,
      "mean_anomaly_deg": 91.2247,
      "mean_motion_rev_day": 15.26741504
    },
    {
      "epoch": "2026-04-17T11:06:54.351648Z",
      "apogee_km": 486.4788814693384,
      "perigee_km": 484.62623438386254,
      "latitude_deg": 1.890915743688935e-05,
      "longitude_deg": 159.5703314721764,
      "height_km": 485.3556328265799,
      "semi_major_axis_km": 6863.6895579266,
      "eccentricity": 0.00013496,
      "inclination_deg": 43.0016,
      "raan_deg": 171.8929,
      "arg_perigee_deg": 268.3817,
      "mean_anomaly_deg": 91.688,
      "mean_motion_rev_day": 15.26744322
    },
    {
      "epoch": "2026-04-18T20:05:16.128672Z",
      "apogee_km": 486.4651917797455,
      "perigee_km": 484.63807786515645,
      "latitude_deg": 1.3691512182900461e-06,
      "longitude_deg": 15.876434459942482,
      "height_km": 485.37299214842756,
      "semi_major_axis_km": 6863.688634822451,
      "eccentricity": 0.0001331,
      "inclination_deg": 43.0017,
      "raan_deg": 164.1439,
      "arg_perigee_deg": 267.2112,
      "mean_anomaly_deg": 92.8587,
      "mean_motion_rev_day": 15.2674463
    },
    {
      "epoch": "2026-04-19T19:38:23.832960Z",
      "apogee_km": 486.4677646531354,
      "perigee_km": 484.6653560981813,
      "latitude_deg": -9.02997809949427e-06,
      "longitude_deg": 16.09246911687585,
      "height_km": 485.39693578161217,
      "semi_major_axis_km": 6863.703560375658,
      "eccentricity": 0.0001313,
      "inclination_deg": 43.002,
      "raan_deg": 158.6093,
      "arg_perigee_deg": 266.5999,
      "mean_anomaly_deg": 93.4702,
      "mean_motion_rev_day": 15.2673965
    },
    {
      "epoch": "2026-04-20T11:20:33.167040Z",
      "apogee_km": 486.1188360781334,
      "perigee_km": 485.3509060931965,
      "latitude_deg": -3.48743218788347e-05,
      "longitude_deg": 136.217865711212,
      "height_km": 485.5494588816761,
      "semi_major_axis_km": 6863.871871085665,
      "eccentricity": 5.594e-05,
      "inclination_deg": 43.0012,
      "raan_deg": 154.9185,
      "arg_perigee_deg": 264.2585,
      "mean_anomaly_deg": 95.8202,
      "mean_motion_rev_day": 15.26683494
    },
    {
      "epoch": "2026-04-21T18:44:36.909600Z",
      "apogee_km": 487.2000459359915,
      "perigee_km": 483.6639351920521,
      "latitude_deg": 6.0433154850537966e-05,
      "longitude_deg": 16.531275265144696,
      "height_km": 485.2032717199027,
      "semi_major_axis_km": 6863.568990564021,
      "eccentricity": 0.0002576,
      "inclination_deg": 43.0004,
      "raan_deg": 147.537,
      "arg_perigee_deg": 270.208,
      "mean_anomaly_deg": 89.8477,
      "mean_motion_rev_day": 15.26784551
    }
  ]
}